NORAD_CAT_ID,OBJECT_NAME,OBJECT_TYPE,EPOCH,MEAN_MOTION,ECCENTRICITY,INCLINATION,RA_OF_ASC_NODE,ARG_OF_PERICENTER,MEAN_ANOMALY,BSTAR,MEAN_MOTION_DOT,MEAN_MOTION_DDOT,TLE_LINE0,TLE_LINE1,TLE_LINE2,SEMIMAJOR_AXIS,PERIOD,APOGEE,PERIGEE,DECAYED
54163.0,STARLINK-5161,PAYLOAD,2024-05-15 05:14:59,15.0886897,0.0001167,53.2153,102.7253,116.9313,243.1799,0.00068577,0.00010652,0.0,0 STARLINK-5161,1 54163U 22141G   24136.21873880  .00010652  00000-0  68577-3 0  9992,2 54163  53.2153 102.7253 0001167 116.9313 243.1799 15.08868970 85694,6917.792,95.436,540.464,538.85,0.0
54163.0,STARLINK-5161,PAYLOAD,2024-05-15 06:50:22,15.08871679,0.00012,53.2154,102.4283,119.3839,240.7273,0.00072976,0.00011355,0.0,0 STARLINK-5161,1 54163U 22141G   24136.28497705  .00011355  00000-0  72976-3 0  9996,2 54163  53.2154 102.4283 0001200 119.3839 240.7273 15.08871679 85705,6917.784,95.436,540.479,538.818,0.0
54163.0,STARLINK-5161,PAYLOAD,2024-05-16 05:05:45,15.08866345,0.0001214,53.216,98.2645,107.9435,252.169,0.0002718,4.044e-05,0.0,0 STARLINK-5161,1 54163U 22141G   24137.21232651  .00004044  00000-0  27180-3 0  9991,2 54163  53.2160  98.2645 0001214 107.9435 252.1690 15.08866345 85845,6917.8,95.436,540.505,538.825,0.0
54163.0,STARLINK-5161,PAYLOAD,2024-05-16 14:38:03,15.08863774,0.000136,53.2163,96.4814,102.9331,257.1813,0.00023235,3.414e-05,0.0,0 STARLINK-5161,1 54163U 22141G   24137.60976341  .00003414  00000-0  23235-3 0  9992,2 54163  53.2163  96.4814 0001360 102.9331 257.1813 15.08863774 85900,6917.808,95.436,540.614,538.732,0.0
54163.0,STARLINK-5161,PAYLOAD,2024-05-17 03:21:07,15.08864313,0.0001199,53.2148,94.1021,118.2809,241.8304,0.00017382,2.481e-05,0.0,0 STARLINK-5161,1 54163U 22141G   24138.13967387  .00002481  00000-0  17382-3 0  9990,2 54163  53.2148  94.1021 0001199 118.2809 241.8304 15.08864313 85981,6917.806,95.436,540.501,538.842,0.0
54163.0,STARLINK-5161,PAYLOAD,2024-05-17 14:28:50,15.08840449,0.0001694,53.2173,92.0192,91.685,268.4336,-0.00019541,-3.397e-05,0.0,0 STARLINK-5161,1 54163U 22141G   24138.60336355 -.00003397  00000-0 -19541-3 0  9995,2 54163  53.2173  92.0192 0001694  91.6850 268.4336 15.08840449 86058,6917.879,95.438,540.916,538.572,0.0
54163.0,STARLINK-5161,PAYLOAD,2024-05-18 06:22:42,15.08837784,0.0001358,53.2169,89.0468,93.2936,266.8211,-2.6823e-05,-7.15e-06,0.0,0 STARLINK-5161,1 54163U 22141G   24139.26576863 -.00000715  00000-0 -26823-4 0  9991,2 54163  53.2169  89.0468 0001358  93.2936 266.8211 15.08837784 86158,6917.887,95.438,540.692,538.813,0.0
54163.0,STARLINK-5161,PAYLOAD,2024-05-19 03:02:43,15.08853269,0.0001415,53.2164,85.1816,95.82,264.2954,0.00086823,0.00013562,0.0,0 STARLINK-5161,1 54163U 22141G   24140.12688968  .00013562  00000-0  86823-3 0  9995,2 54163  53.2164  85.1816 0001415  95.8200 264.2954 15.08853269 86289,6917.84,95.437,540.684,538.726,0.0
54163.0,STARLINK-5161,PAYLOAD,2024-05-19 06:13:29,15.08860121,0.0001393,53.2172,84.5854,100.3569,259.758,0.0010745,0.00016863,0.0,0 STARLINK-5161,1 54163U 22141G   24140.25936776  .00016863  00000-0  10745-2 0  9998,2 54163  53.2172  84.5854 0001393 100.3569 259.7580 15.08860121 86300,6917.819,95.436,540.648,538.72,0.0
54163.0,STARLINK-5161,PAYLOAD,2024-05-20 02:53:31,15.08826964,0.0001711,53.2173,80.7207,107.1972,252.9208,0.00089421,0.00013967,0.0,0 STARLINK-5161,1 54163U 22141G   24141.12050032  .00013967  00000-0  89421-3 0  9997,2 54163  53.2173  80.7207 0001711 107.1972 252.9208 15.08826964 86431,6917.92,95.438,540.969,538.602,0.0
54163.0,STARLINK-5161,PAYLOAD,2024-05-20 20:22:46,15.08828518,0.0001733,53.2169,77.45,97.8474,262.2715,0.00043557,6.649e-05,0.0,0 STARLINK-5161,1 54163U 22141G   24141.84914897  .00006649  00000-0  43557-3 0  9993,2 54163  53.2169  77.4500 0001733  97.8474 262.2715 15.08828518 86547,6917.915,95.438,540.979,538.582,0.0
54163.0,STARLINK-5161,PAYLOAD,2024-05-21 02:44:19,15.08828949,0.0001753,53.2173,76.2607,106.7898,253.3287,0.00032791,4.933e-05,0.0,0 STARLINK-5161,1 54163U 22141G   24142.11411063  .00004933  00000-0  32791-3 0  9993,2 54163  53.2173  76.2607 0001753 106.7898 253.3287 15.08828949 86586,6917.914,95.438,540.992,538.566,0.0
54163.0,STARLINK-5161,PAYLOAD,2024-05-22 04:10:28,15.08863238,0.0001629,53.2173,71.5006,100.8572,259.2603,0.00082031,0.000128,0.0,0 STARLINK-5161,1 54163U 22141G   24143.17394289  .00012800  00000-0  82031-3 0  9994,2 54163  53.2173  71.5006 0001629 100.8572 259.2603 15.08863238 86748,6917.809,95.436,540.801,538.547,0.0
54163.0,STARLINK-5161,PAYLOAD,2024-05-23 04:01:15,15.0885789,0.0001338,53.2176,67.0443,97.3088,262.8056,0.00057973,8.955e-05,0.0,0 STARLINK-5161,1 54163U 22141G   24144.16753973  .00008955  00000-0  57973-3 0  9996,2 54163  53.2176  67.0443 0001338  97.3088 262.8056 15.08857890 86890,6917.826,95.436,540.616,538.765,0.0
54163.0,STARLINK-5161,PAYLOAD,2024-05-24 03:52:02,15.0885665,0.0001282,53.2174,62.5832,99.4344,260.6793,0.001605,0.0002536,0.0,0 STARLINK-5161,1 54163U 22141G   24145.16114254  .00025360  00000-0  16050-2 0  9999,2 54163  53.2174  62.5832 0001282  99.4344 260.6793 15.08856650 87041,6917.829,95.437,540.581,538.808,0.0
54163.0,STARLINK-5161,PAYLOAD,2024-05-24 18:10:31,15.08835975,0.0001143,53.2185,59.9081,110.9116,249.1998,0.0011151,0.00017501,0.0,0 STARLINK-5161,1 54163U 22141G   24145.75730446  .00017501  00000-0  11151-2 0  9996,2 54163  53.2185  59.9081 0001143 110.9116 249.1998 15.08835975 87137,6917.893,95.438,540.548,538.967,0.0
54163.0,STARLINK-5161,PAYLOAD,2024-05-24 22:56:40,15.08845588,0.0001911,53.2177,59.0136,125.7349,234.3822,0.00078772,0.00012273,0.0,0 STARLINK-5161,1 54163U 22141G   24145.95602140  .00012273  00000-0  78772-3 0  9991,2 54163  53.2177  59.0136 0001911 125.7349 234.3822 15.08845588 87161,6917.863,95.437,541.05,538.406,0.0
54163.0,STARLINK-5161,PAYLOAD,2024-05-25 11:39:45,15.0884437,0.0001173,53.218,56.6369,100.9488,259.1636,0.00031472,4.725e-05,0.0,0 STARLINK-5161,1 54163U 22141G   24146.48594351  .00004725  00000-0  31472-3 0  9993,2 54163  53.2180  56.6369 0001173 100.9488 259.1636 15.08844370 87240,6917.867,95.437,540.543,538.921,0.0
54163.0,STARLINK-5161,PAYLOAD,2024-05-25 21:12:04,15.08830578,0.0001286,53.2173,54.8534,86.2498,273.8641,1.3379e-05,-7.5e-07,0.0,0 STARLINK-5161,1 54163U 22141G   24146.88338834 -.00000075  00000-0  13379-4 0  9991,2 54163  53.2173  54.8534 0001286  86.2498 273.8641 15.08830578 87309,6917.909,95.438,540.664,538.885,0.0
54163.0,STARLINK-5161,PAYLOAD,2024-05-26 03:33:37,15.0883776,0.0001617,53.2183,53.6618,93.7909,266.3268,0.00030701,4.601e-05,0.0,0 STARLINK-5161,1 54163U 22141G   24147.14834902  .00004601  00000-0  30701-3 0  9993,2 54163  53.2183  53.6618 0001617  93.7909 266.3268 15.08837760 87344,6917.887,95.438,540.871,538.634,0.0
54163.0,STARLINK-5161,PAYLOAD,2024-05-26 21:02:51,15.08845991,0.0001645,53.2178,50.3905,96.8154,263.3025,0.00048639,7.463e-05,0.0,0 STARLINK-5161,1 54163U 22141G   24147.87698891  .00007463  00000-0  48639-3 0  9996,2 54163  53.2178  50.3905 0001645  96.8154 263.3025 15.08845991 87453,6917.862,95.437,540.865,538.589,0.0
54163.0,STARLINK-5161,PAYLOAD,2024-05-26 22:38:14,15.08847864,0.0001646,53.2179,50.0931,96.8242,263.2938,0.00054739,8.436e-05,0.0,0 STARLINK-5161,1 54163U 22141G   24147.94322857  .00008436  00000-0  54739-3 0  9999,2 54163  53.2179  50.0931 0001646  96.8242 263.2938 15.08847864 87463,6917.856,95.437,540.86,538.583,0.0
54163.0,STARLINK-5161,PAYLOAD,2024-05-27 03:24:24,15.08856927,0.0001458,53.2176,49.2036,82.8372,277.2786,0.00076357,0.00011891,0.0,0 STARLINK-5161,1 54163U 22141G   24148.14194605  .00011891  00000-0  76357-3 0  9999,2 54163  53.2176  49.2036 0001458  82.8372 277.2786 15.08856927 87495,6917.829,95.436,540.702,538.685,0.0
54163.0,STARLINK-5161,PAYLOAD,2024-05-27 20:53:38,15.08845341,0.0001625,53.2179,45.9279,94.8344,265.2834,0.00014268,1.984e-05,0.0,0 STARLINK-5161,1 54163U 22141G   24148.87058624  .00001984  00000-0  14268-3 0  9994,2 54163  53.2179  45.9279 0001625  94.8344 265.2834 15.08845341 87600,6917.864,95.437,540.853,538.605,0.0
54163.0,STARLINK-5161,PAYLOAD,2024-05-27 22:29:01,15.08845673,0.0001616,53.2179,45.6306,91.7835,268.3342,0.00016742,2.378e-05,0.0,0 STARLINK-5161,1 54163U 22141G   24148.93682626  .00002378  00000-0  16742-3 0  9993,2 54163  53.2179  45.6306 0001616  91.7835 268.3342 15.08845673 87616,6917.863,95.437,540.846,538.61,0.0
54163.0,STARLINK-5161,PAYLOAD,2024-05-28 09:36:43,15.08850818,0.0001551,53.2179,43.5478,101.5667,258.55,0.0002262,3.315e-05,0.0,0 STARLINK-5161,1 54163U 22141G   24149.40050190  .00003315  00000-0  22620-3 0  9995,2 54163  53.2179  43.5478 0001551 101.5667 258.5500 15.08850818 87685,6917.847,95.437,540.785,538.639,0.0
54163.0,STARLINK-5161,PAYLOAD,2024-05-28 22:19:48,15.08843978,0.0001579,53.2173,41.1722,109.2248,250.8915,2.6618e-06,-2.46e-06,0.0,0 STARLINK-5161,1 54163U 22141G   24149.93042311 -.00000246  00000-0  26618-5 0  9993,2 54163  53.2173  41.1722 0001579 109.2248 250.8915 15.08843978 87768,6917.868,95.437,540.826,538.641,0.0
54163.0,STARLINK-5161,PAYLOAD,2024-05-28 23:55:11,15.08844261,0.0001462,53.2178,40.8732,87.1352,272.9808,7.377e-05,8.86e-06,0.0,0 STARLINK-5161,1 54163U 22141G   24149.99666439  .00000886  00000-0  73770-4 0  9991,2 54163  53.2178  40.8732 0001462  87.1352 272.9808 15.08844261 87774,6917.867,95.437,540.744,538.721,0.0
54163.0,STARLINK-5161,PAYLOAD,2024-05-29 20:35:12,15.08840354,0.0001382,53.2179,37.0124,93.3218,266.7932,-1.3919e-05,-5.09e-06,0.0,0 STARLINK-5161,1 54163U 22141G   24150.85778894 -.00000509  00000-0 -13919-4 0  9990,2 54163  53.2179  37.0124 0001382  93.3218 266.7932 15.08840354 87902,6917.879,95.438,540.7,538.788,0.0
54163.0,STARLINK-5161,PAYLOAD,2024-05-29 22:10:36,15.08840096,0.0001416,53.2177,36.7149,99.062,261.0532,-1.0203e-05,-4.5e-06,0.0,0 STARLINK-5161,1 54163U 22141G   24150.92402877 -.00000450  00000-0 -10203-4 0  9991,2 54163  53.2177  36.7149 0001416  99.0620 261.0532 15.08840096 87919,6917.88,95.438,540.725,538.766,0.0
